{
  "type": "FeatureCollection",
  "features": [
    {
      "type": "Feature",
      "properties": {
        "norad_id": 31307,
        "name": "GALAXY 17 (G-17)",
        "group": "intelsat",
        "lat": 0.18021498066256694,
        "lon": -102.47897157482477,
        "alt_km": 35764.000860817105,
        "timestamp": "2025-12-21T16:47:54.396500+00:00",
        "meta_object_name": "GALAXY 17 (G-17)",
        "meta_object_id": "2007-016B",
        "meta_epoch": "2025-12-21T12:03:49.880160",
        "meta_mean_motion": 1.00270125,
        "meta_eccentricity": 0.0005342,
        "meta_inclination": 2.5205,
        "meta_ra_of_asc_node": 82.1873,
        "meta_arg_of_pericenter": 170.3583,
        "meta_mean_anomaly": 293.758,
        "meta_ephemeris_type": 0,
        "meta_classification_type": "U",
        "meta_norad_cat_id": 31307,
        "meta_element_set_no": 999,
        "meta_rev_at_epoch": 6802,
        "meta_bstar": 0,
        "meta_mean_motion_dot": -1.85e-06,
        "meta_mean_motion_ddot": 0,
        "tle_line1": "1 31307U 07016B   25355.50266065 -.00000185  00000+0  00000+0 0  9991",
        "tle_line2": "2 31307   2.5205  82.1873 0005342 170.3583 293.7580  1.00270125 68028"
      },
      "geometry": {
        "type": "Point",
        "coordinates": [
          -102.47897157482477,
          0.18021498066256694
        ]
      }
    },
    {
      "type": "Feature",
      "properties": {
        "norad_id": 31862,
        "name": "DIRECTV 10",
        "group": "intelsat",
        "lat": -2.1037001320470912e-05,
        "lon": -120.3211255478923,
        "alt_km": 35785.73585732265,
        "timestamp": "2025-12-21T16:47:54.396512+00:00",
        "meta_object_name": "DIRECTV 10",
        "meta_object_id": "2007-032A",
        "meta_epoch": "2025-12-20T21:18:05.647104",
        "meta_mean_motion": 1.00270377,
        "meta_eccentricity": 2.73e-05,
        "meta_inclination": 0.0073,
        "meta_ra_of_asc_node": 111.6707,
        "meta_arg_of_pericenter": 78.7977,
        "meta_mean_anomaly": 115.9664,
        "meta_ephemeris_type": 0,
        "meta_classification_type": "U",
        "meta_norad_cat_id": 31862,
        "meta_element_set_no": 999,
        "meta_rev_at_epoch": 4380,
        "meta_bstar": 0,
        "meta_mean_motion_dot": -8e-07,
        "meta_mean_motion_ddot": 0,
        "tle_line1": "1 31862U 07032A   25354.88756536 -.00000080  00000+0  00000+0 0  9996",
        "tle_line2": "2 31862   0.0073 111.6707 0000273  78.7977 115.9664  1.00270377 43806"
      },
      "geometry": {
        "type": "Point",
        "coordinates": [
          -120.3211255478923,
          -2.1037001320470912e-05
        ]
      }
    },
    {
      "type": "Feature",
      "properties": {
        "norad_id": 32253,
        "name": "INTELSAT 11 (IS-11)",
        "group": "intelsat",
        "lat": 3.1089217396595403,
        "lon": 168.67506058340012,
        "alt_km": 36125.72799036692,
        "timestamp": "2025-12-21T16:47:54.396523+00:00",
        "meta_object_name": "INTELSAT 11 (IS-11)",
        "meta_object_id": "2007-044B",
        "meta_epoch": "2025-12-21T10:39:51.433056",
        "meta_mean_motion": 0.99052571,
        "meta_eccentricity": 0.0008532,
        "meta_inclination": 3.1015,
        "meta_ra_of_asc_node": 80.8804,
        "meta_arg_of_pericenter": 169.3908,
        "meta_mean_anomaly": 187.3652,
        "meta_ephemeris_type": 0,
        "meta_classification_type": "U",
        "meta_norad_cat_id": 32253,
        "meta_element_set_no": 999,
        "meta_rev_at_epoch": 6668,
        "meta_bstar": 0,
        "meta_mean_motion_dot": -8.9e-07,
        "meta_mean_motion_ddot": 0,
        "tle_line1": "1 32253U 07044B   25355.44434529 -.00000089  00000+0  00000+0 0  9991",
        "tle_line2": "2 32253   3.1015  80.8804 0008532 169.3908 187.3652  0.99052571 66685"
      },
      "geometry": {
        "type": "Point",
        "coordinates": [
          168.67506058340012,
          3.1089217396595403
        ]
      }
    },
    {
      "type": "Feature",
      "properties": {
        "norad_id": 32388,
        "name": "HORIZONS-2",
        "group": "intelsat",
        "lat": -0.24397078882414983,
        "lon": -91.30852955927249,
        "alt_km": 35766.95001364808,
        "timestamp": "2025-12-21T16:47:54.396535+00:00",
        "meta_object_name": "HORIZONS-2",
        "meta_object_id": "2007-063B",
        "meta_epoch": "2025-12-21T11:14:38.444064",
        "meta_mean_motion": 1.00271284,
        "meta_eccentricity": 0.0004612,
        "meta_inclination": 2.1429,
        "meta_ra_of_asc_node": 82.8677,
        "meta_arg_of_pericenter": 194.4204,
        "meta_mean_anomaly": 267.876,
        "meta_ephemeris_type": 0,
        "meta_classification_type": "U",
        "meta_norad_cat_id": 32388,
        "meta_element_set_no": 999,
        "meta_rev_at_epoch": 6603,
        "meta_bstar": 0,
        "meta_mean_motion_dot": -2.32e-06,
        "meta_mean_motion_ddot": 0,
        "tle_line1": "1 32388U 07063B   25355.46850051 -.00000232  00000+0  00000+0 0  9995",
        "tle_line2": "2 32388   2.1429  82.8677 0004612 194.4204 267.8760  1.00271284 66035"
      },
      "geometry": {
        "type": "Point",
        "coordinates": [
          -91.30852955927249,
          -0.24397078882414983
        ]
      }
    },
    {
      "type": "Feature",
      "properties": {
        "norad_id": 32729,
        "name": "DIRECTV 11",
        "group": "intelsat",
        "lat": -0.021941717897983548,
        "lon": -116.70522529868715,
        "alt_km": 35786.12855334385,
        "timestamp": "2025-12-21T16:47:54.396546+00:00",
        "meta_object_name": "DIRECTV 11",
        "meta_object_id": "2008-013A",
        "meta_epoch": "2025-12-21T08:20:59.119008",
        "meta_mean_motion": 1.00270364,
        "meta_eccentricity": 4.54e-05,
        "meta_inclination": 0.0491,
        "meta_ra_of_asc_node": 186.3894,
        "meta_arg_of_pericenter": 338.0955,
        "meta_mean_anomaly": 311.7374,
        "meta_ephemeris_type": 0,
        "meta_classification_type": "U",
        "meta_norad_cat_id": 32729,
        "meta_element_set_no": 999,
        "meta_rev_at_epoch": 4381,
        "meta_bstar": 0,
        "meta_mean_motion_dot": -1.03e-06,
        "meta_mean_motion_ddot": 0,
        "tle_line1": "1 32729U 08013A   25355.34790647 -.00000103  00000+0  00000+0 0  9998",
        "tle_line2": "2 32729   0.0491 186.3894 0000454 338.0955 311.7374  1.00270364 43819"
      },
      "geometry": {
        "type": "Point",
        "coordinates": [
          -116.70522529868715,
          -0.021941717897983548
        ]
      }
    },
    {
      "type": "Feature",
      "properties": {
        "norad_id": 32951,
        "name": "GALAXY 18 (G-18)",
        "group": "intelsat",
        "lat": -0.0025975543120654618,
        "lon": -140.5550406801595,
        "alt_km": 35779.505389868864,
        "timestamp": "2025-12-21T16:47:54.396558+00:00",
        "meta_object_name": "GALAXY 18 (G-18)",
        "meta_object_id": "2008-024A",
        "meta_epoch": "2025-12-21T08:40:28.061760",
        "meta_mean_motion": 1.00271198,
        "meta_eccentricity": 0.0002847,
        "meta_inclination": 0.0183,
        "meta_ra_of_asc_node": 61.6385,
        "meta_arg_of_pericenter": 214.0045,
        "meta_mean_anomaly": 181.6446,
        "meta_ephemeris_type": 0,
        "meta_classification_type": "U",
        "meta_norad_cat_id": 32951,
        "meta_element_set_no": 999,
        "meta_rev_at_epoch": 4407,
        "meta_bstar": 0,
        "meta_mean_motion_dot": 4.8e-07,
        "meta_mean_motion_ddot": 0,
        "tle_line1": "1 32951U 08024A   25355.36143590  .00000048  00000+0  00000+0 0  9995",
        "tle_line2": "2 32951   0.0183  61.6385 0002847 214.0045 181.6446  1.00271198 44074"
      },
      "geometry": {
        "type": "Point",
        "coordinates": [
          -140.5550406801595,
          -0.0025975543120654618
        ]
      }
    },
    {
      "type": "Feature",
      "properties": {
        "norad_id": 33153,
        "name": "INTELSAT 25 (IS-25)",
        "group": "intelsat",
        "lat": -1.7050367374232476,
        "lon": -49.01825230312708,
        "alt_km": 35771.24550711329,
        "timestamp": "2025-12-21T16:47:54.396570+00:00",
        "meta_object_name": "INTELSAT 25 (IS-25)",
        "meta_object_id": "2008-034A",
        "meta_epoch": "2025-12-21T07:15:38.694816",
        "meta_mean_motion": 1.00269773,
        "meta_eccentricity": 0.0004819,
        "meta_inclination": 2.2484,
        "meta_ra_of_asc_node": 82.5583,
        "meta_arg_of_pericenter": 188.4629,
        "meta_mean_anomaly": 256.4971,
        "meta_ephemeris_type": 0,
        "meta_classification_type": "U",
        "meta_norad_cat_id": 33153,
        "meta_element_set_no": 999,
        "meta_rev_at_epoch": 6391,
        "meta_bstar": 0,
        "meta_mean_motion_dot": -2.03e-06,
        "meta_mean_motion_ddot": 0,
        "tle_line1": "1 33153U 08034A   25355.30253119 -.00000203  00000+0  00000+0 0  9998",
        "tle_line2": "2 33153   2.2484  82.5583 0004819 188.4629 256.4971  1.00269773 63916"
      },
      "geometry": {
        "type": "Point",
        "coordinates": [
          -49.01825230312708,
          -1.7050367374232476
        ]
      }
    }
  ]
}